CIC_OEM_VERS = 2.0
CREATION_DATE = 2025-05-13T09:56:03.418644
ORIGINATOR = ISAE-SUPAERO


META_START
OBJECT_NAME = PLEIADES1A
OBJECT_ID = PLEIADES1A
CENTER_NAME = Earth
REF_FRAME = EME2000
TIME_SYSTEM = UTC
START_TIME = 2025-05-13T04:07:58.627
USEABLE_START_TIME = 2025-05-13T04:07:58.627
USEABLE_STOP_TIME = 2025-05-13T23:57:58.627
STOP_TIME = 2025-05-13T23:57:58.627
INTERPOLATION = lagrange
INTERPOLATION_DEGREE = 5
META_STOP



60808 14878.627 -5623.4577 -2543.5333 3460.094 2.7941083 2.6105567 6.4587222
60808 15298.627 -3936.0821 -1233.1273999999999 5743.4355000000005 5.0925614 3.5195726 4.245680500000001
60808 15718.627 -1483.4071000000001 317.05169 6907.1942 6.392055500000001 3.7393555000000003 1.2048249000000002
60808 16138.627 1257.9498999999998 1805.5061 6723.1184 6.4460851 3.2313507 -2.0664015
60808 16558.627 3754.5904 2942.7834 5228.0673 5.2459575 2.094583 -4.9351702
60808 16978.627 5520.3099 3507.2327999999998 2712.8525 3.0226023 0.54846775 -6.8436503
60808 17398.627 6210.2722 3388.2402 -332.38367 0.20809019 -1.1058771 -7.416246600000001
60808 17818.627 5689.5763 2608.7749 -3312.4973 -2.6457618000000003 -2.5441374000000003 -6.5400792
60808 18238.627 4061.003 1321.2568 -5646.3014 -4.9803436 -3.4851967 -4.3896403
60808 18658.627 1642.922 -223.18561 -6879.7806 -6.343933 -3.74777 -1.3872042
60808 19078.627 -1094.2509 -1724.2872 -6773.4908 -6.4749300000000005 -3.2821741 1.8855193
60808 19498.627 -3618.4573 -2890.0507000000002 -5346.858200000001 -5.3457085 -2.1767279 4.7965773
60808 19918.627 -5441.898 -3495.3634 -2877.3623 -3.1647285000000003 -0.64114118 6.7727274
60808 20338.627 -6197.107599999999 -3415.1824 154.57882 -0.36898116 1.0186491 7.427596899999999
60808 20758.627 -5741.7012 -2667.8016000000002 3156.5108 2.5016963000000003 2.4812708 6.6292816000000006
60808 21178.627 -4164.8803 -1399.3618000000001 5540.4423 4.8819433 3.4585100000000004 4.5342321000000005
60808 21598.627 -1775.5175 142.1216 6840.8307 6.3072603 3.7602443 1.5557617000000001
60808 22018.627 959.8988800000001 1655.9558000000002 6804.7169 6.5027985 3.3290847 -1.7249271000000002
60808 22438.627 3508.1859 2847.0364 5439.0606 5.4304225 2.2484055 -4.6708356
60808 22858.627 5371.816 3482.5398 3009.526 3.2961902000000003 0.72716707 -6.7065494
60808 23278.627 6185.987099999999 3437.6733 -9.436533299999999 0.5164607800000001 -0.93724631 -7.4300409
60808 23698.627 5791.8323 2721.2604 -3026.7831 -2.3613721 -2.4170832 -6.6988655
60808 24118.627 4266.692 1473.3120000000001 -5452.4164 -4.7731607 -3.4232311 -4.6626161
60808 24538.627 1912.7084 -60.754342 -6815.5675 -6.2504847 -3.7610385 -1.722369
60808 24958.627 -812.5790400000001 -1583.1095 -6852.6505 -6.5130302 -3.3687582000000003 1.5484314
60808 25378.627 -3380.1413 -2798.3347000000003 -5556.975 -5.511446 -2.322251 4.520203400000001
60808 25798.627 -5290.7276 -3469.7541 -3178.8876 -3.4351947000000003 -0.82143949 6.6171793
60808 26218.627 -6168.590200000001 -3464.1169 -180.00931 -0.68486791 0.8431141 7.4277451
60808 26638.627 -5844.1798 -2783.1938 2854.7219 2.2041889 2.3456170000000003 6.7826973
60808 27058.627 -4378.161700000001 -1558.568 5330.452200000001 4.6605349 3.3889677000000002 4.8107644
60808 27478.627 -2057.9889 -29.832548 6763.7261 6.2046155 3.7701197000000004 1.9018146
60808 27898.627 663.20676 1504.7862 6875.9753 6.538926900000001 3.4166260000000004 -1.3759673000000001
60808 28318.627 3255.1885 2746.2786 5645.4943 5.5991492 2.3970861 -4.386709
60808 28738.627 5212.3180999999995 3452.202 3311.4472 3.5653676 0.90828439 -6.5435583
60808 29158.627 6151.6488 3484.0213 329.22441 0.8332193200000001 -0.7593717900000001 -7.4211624
60808 29578.627 5889.768400000001 2835.4567 -2717.7914 -2.0601454 -2.2778526 -6.8455457
60808 29998.627 4474.238 1631.3279 -5232.085599999999 -4.5486709 -3.3514098 -4.9377421
60808 30418.627 2190.5854 110.87139 -6727.4004 -6.1449229 -3.7688026 -2.0665169000000003
60808 30838.627 -518.93455 -1431.2350000000001 -6912.0103 -6.5444222000000005 -3.4533733000000004 1.2013364999999998
60808 31258.627 -3127.6724 -2695.4748 -5751.2033 -5.6729715 -2.4673085 4.2352407
60808 31678.627 -5128.5157 -3435.8905 -3470.0373 -3.6966694 -0.9996900900000001 6.448131999999999
60808 32098.627 -6131.045700000001 -3507.4762 -511.65802 -0.9966460899999999 0.66527625 7.4051448
60808 32518.627 -5937.7129 -2894.8939 2546.9432 1.8991889000000002 2.201623 6.9161771
60808 32938.627 -4587.5149 -1718.3361000000002 5107.6916 4.4232154 3.3079621 5.0758087
60808 33358.627 -2344.0224 -207.138 6671.4889 6.0830197 3.7690789000000002 2.2478702
60808 33778.627 355.41517 1344.3785 6934.3753 6.5588825 3.4968874999999997 -1.0169513
60808 34198.627 2985.5811000000003 2634.2518999999998 5844.6097 5.7581908 2.5434458 -4.0870981
60808 34618.627 5037.577200000001 3413.0398 3614.3713 3.8296192000000002 1.0909362 -6.3600355
60808 35038.627 6101.7441 3523.1097000000004 676.94913 1.1540265 -0.57513754 -7.3937409
60808 35458.627 5974.9282 2945.5547 -2392.641 -1.7478401 -2.1294944 -6.9804122
60808 35878.627 4681.258 1792.6292 -4994.5280999999995 -4.3056503 -3.26699 -5.2036832
60808 36298.627 2476.2641000000003 290.79717 -6621.1427 -6.0199623 -3.7660616 -2.4145027
60808 36718.627 -210.33978 -1267.6431000000002 -6956.947700000001 -6.5618910999999995 -3.532446 0.84165935
60808 37138.627 -2855.9791 -2579.6546000000003 -5936.9976 -5.8279888 -2.6117698000000003 3.9353509
60808 37558.627 -4945.5560000000005 -3389.5027999999998 -3758.6396 -3.9570784 -1.1803422000000001 6.266430000000001
60808 37978.627 -6070.6308 -3538.6307 -847.30158 -1.3112607 0.48351337 7.3747461
60808 38398.627 -6010.5882 -2996.6892000000003 2231.3237000000004 1.5928914 2.0545184 7.0410265
60808 38818.627 -4777.0617 -1869.6733000000002 4873.1981 4.1828663 3.2229368 5.3310085
60808 39238.627 -2612.4098 -378.15958 6563.101000000001 5.9536319 3.761683 2.5835601
60808 39658.627 60.571003 1186.986 6972.9084 6.5643174 3.5681607 -0.66416135
60808 40078.627 2721.726 2521.2693 6023.2121 5.8981502 2.6803329 -3.7837428
60808 40498.627 4852.871700000001 3364.6237 3897.8846000000003 4.0810797 1.2684363 -6.1696045999999996
60808 40918.627 6036.9608 3551.3848 1010.0546 1.4637643 -0.39379078 -7.3524228
60808 41338.627 6041.8912 3044.512 -2075.4003000000002 -1.4408542 -1.9798935 -7.095509600000001
60808 41758.627 4864.728400000001 1942.1871 -4752.5566 -4.0629831 -3.179329 -5.453032100000001
60808 42178.627 2739.5254 461.08734000000004 -6502.8681 -5.8878673 -3.7562256000000005 -2.7456556
60808 42598.627 80.71136 -1109.8985 -6983.6945000000005 -6.5634533 -3.6008638 0.49337687
60808 43018.627 -2593.7979 -2464.9067000000005 -6102.0427 -5.9615675 -2.7447565 3.6355254
60808 43438.627 -4763.1949 -3339.9622000000004 -4029.3125 -4.1973675 -1.3528224 6.07132
60808 43858.627 -6003.7988 -3563.7841000000003 -1169.0039 -1.6118649 0.30495683 7.3228772
60808 44278.627 -6072.3458 -3091.8993 1920.0142 1.2888252 1.9037689 7.1425112
60808 44698.627 -4951.9872000000005 -2014.6442 4632.082 3.9356157 3.1309639000000002 5.5721302
60808 45118.627 -2865.5762999999997 -544.08996 6439.7588 5.8180361000000005 3.7483374 2.9064821000000003
60808 45538.627 -222.66142000000002 1031.8008 6991.5951 6.5584339 3.6315309000000005 -0.32151188
60808 45958.627 2463.622 2406.8402 6178.8252 6.021713399999999 2.8079378000000004 -3.4845339
60808 46378.627 4670.219099999999 3313.2952000000005 4160.1044 4.311699 1.4368611 -5.9692482
60808 46798.627 5966.7142 3574.1166000000003 1328.7261 1.7594941 -0.21561807 -7.2896406
60808 47218.627 6099.7959 3138.0574 -1762.442 -1.1354388 -1.8259678 -7.1855401
60808 47638.627 5043.7365 2090.1516 -4509.700400000001 -3.8056931 -3.0789720000000003 -5.6796907
60808 48058.627 3007.2815 636.00497 -6377.82 -5.7308441000000006 -3.7309135 -3.069673
60808 48478.627 386.88914 -941.6798100000001 -7004.585 -6.541276 -3.6579132 0.1342436
60808 48898.627 -2308.5081 -2336.5553999999997 -6268.410400000001 -6.0819123 -2.8744663 3.3142598
60808 49318.627 -4554.803 -3277.0269 -4310.5194 -4.4372606 -1.5294046000000001 5.8555823
60808 49738.627 -5920.8535 -3583.5136 -1513.1669 -1.9185281 0.11814189 7.2480269
60808 50158.627 -6123.5925 -3186.4996 1578.9045 0.96988645 1.7416084 7.2320316
60808 50578.627 -5132.601900000001 -2168.322 4362.424099999999 3.6708606 3.0264670000000002 5.8025531
60808 50998.627 -3141.0812 -727.47471 6293.4067000000005 5.6552951 3.7209719 3.2399719
60808 51418.627 -537.48063 855.12707 6994.9178 6.537397 3.6903384999999997 0.044810212
60808 51838.627 2170.7812999999996 2270.9649 6329.2285999999995 6.1452209 2.9398972 -3.1623823000000004
60808 52258.627 4458.0262 3246.159 4431.3963 4.5458978 1.6113411000000002 -5.7507131000000005
60808 52678.627 5874.0571 3586.8756000000003 1664.5397 2.0635311 -0.029180810999999997 -7.2124702
60808 53098.627 6136.7005 3223.763 -1427.2092 -0.81692455 -1.6632422999999998 -7.2737051
60808 53518.627 5203.0209 2232.0762999999997 -4240.6576 -3.5418095 -2.9749803000000004 -5.9124217
60808 53938.627 3250.1979 803.39404 -6220.0329 -5.5803738 -3.7094603000000004 -3.3978498
60808 54358.627 663.55732 -782.5925400000001 -6987.165599999999 -6.5258256 -3.7164758000000004 -0.21098509000000001
60808 54778.627 -2052.2182 -2215.9404 -6389.0081 -6.192213300000001 -2.9959719000000002 3.0117729
60808 55198.627 -4367.5803 -3216.8497 -4540.5973 -4.6505663 -1.6913185000000002 5.6435781
60808 55618.627 -5830.933900000001 -3590.2256 -1804.0567 -2.2025885 -0.057420665 7.1707410000000005
60808 56038.627 -6157.7569 -3263.8187000000003 1285.2204 0.6710597800000001 1.5854123 7.2957315
60808 56458.627 -5286.7527 -2302.52 4124.090200000001 3.4068252 2.9160237 5.999569
60808 56878.627 -3390.1763 -894.50186 6161.2753 5.474768600000001 3.6780314 3.5422287000000003
60808 57298.627 -837.56425 686.6602800000001 7003.3808 6.480633399999999 3.7275348 0.40189924000000005
60808 57718.627 1876.9409 2134.972 6487.4242 6.232779300000001 3.0554376000000003 -2.8196060000000003
60808 58138.627 4227.227400000001 3169.2463 4710.6632 4.7732177 1.7874151 -5.5031314
